STARLINK-3082
1 19162C 21082AJ  21326.13701446 -.00647493  00000-0 -11364-1 0  3260
2 19162  70.0000 293.3386 0003493 274.6049  45.6441 15.51020336    17
